O3B MPOWER F1           
1 54755U 22174A   24277.51423388 -.00000022  00000+0  00000+0 0  9991
2 54755   0.0527 345.7291 0006477 198.2474 232.7921  5.00113544 34255
